{
  "norad_id": 58211,
  "name": "STARLINK-30838",
  "history": [
    {
      "epoch": "2026-03-28T11:15:36.321696Z",
      "apogee_km": 484.05428686049436,
      "perigee_km": 482.03023897793446,
      "latitude_deg": 2.694720119570156e-06,
      "longitude_deg": 93.19879127716304,
      "height_km": 482.8833798839793,
      "semi_major_axis_km": 6861.179262919214,
      "eccentricity": 0.0001475,
      "inclination_deg": 43.0022,
      "raan_deg": 87.9893,
      "arg_perigee_deg": 266.3674,
      "mean_anomaly_deg": 93.7009,
      "mean_motion_rev_day": 15.27582282
    },
    {
      "epoch": "2026-03-30T00:55:21.539136Z",
      "apogee_km": 484.2593825021859,
      "perigee_km": 481.8236641264093,
      "latitude_deg": -1.3953233823865833e-05,
      "longitude_deg": -122.1499785238372,
      "height_km": 483.0846956175926,
      "semi_major_axis_km": 6861.178523314297,
      "eccentricity": 0.0001775,
      "inclination_deg": 43.0031,
      "raan_deg": 79.1257,
      "arg_perigee_deg": 257.3891,
      "mean_anomaly_deg": 102.6762,
      "mean_motion_rev_day": 15.27582529
    },
    {
      "epoch": "2026-03-30T05:37:50.024064Z",
      "apogee_km": 484.07389768743906,
      "perigee_km": 482.0380445090541,
      "latitude_deg": -4.591319516183081e-05,
      "longitude_deg": 165.9321533268024,
      "height_km": 482.8089574677822,
      "semi_major_axis_km": 6861.192971098246,
      "eccentricity": 0.00014836,
      "inclination_deg": 43.0025,
      "raan_deg": 78.0199,
      "arg_perigee_deg": 271.355,
      "mean_anomaly_deg": 88.7131,
      "mean_motion_rev_day": 15.27577704
    },
    {
      "epoch": "2026-03-30T10:20:18.237696Z",
      "apogee_km": 484.1469338709576,
      "perigee_km": 481.97124859042833,
      "latitude_deg": -1.7421634290102417e-05,
      "longitude_deg": 94.0138831353976,
      "height_km": 482.7726797005913,
      "semi_major_axis_km": 6861.196091230692,
      "eccentricity": 0.00015855,
      "inclination_deg": 43.0029,
      "raan_deg": 76.9125,
      "arg_perigee_deg": 273.3515,
      "mean_anomaly_deg": 86.7155,
      "mean_motion_rev_day": 15.27576662
    },
    {
      "epoch": "2026-03-31T08:18:28.793376Z",
      "apogee_km": 484.23743011538045,
      "perigee_km": 481.76522475323964,
      "latitude_deg": -1.4717366206890651e-05,
      "longitude_deg": 118.39704580101584,
      "height_km": 482.8990097935336,
      "semi_major_axis_km": 6861.13832743431,
      "eccentricity": 0.00018016,
      "inclination_deg": 43.0037,
      "raan_deg": 71.7419,
      "arg_perigee_deg": 264.4164,
      "mean_anomaly_deg": 95.6482,
      "mean_motion_rev_day": 15.27595953
    },
    {
      "epoch": "2026-04-01T07:50:50.619264Z",
      "apogee_km": 484.1254297562273,
      "perigee_km": 482.03001478004717,
      "latitude_deg": -4.721426312087944e-05,
      "longitude_deg": 118.80014262435147,
      "height_km": 482.8702558139506,
      "semi_major_axis_km": 6861.214722268137,
      "eccentricity": 0.0001527,
      "inclination_deg": 43.0035,
      "raan_deg": 66.2027,
      "arg_perigee_deg": 269.1614,
      "mean_anomaly_deg": 90.9062,
      "mean_motion_rev_day": 15.2757044
    }
  ]
}